ONEWEB-0228             
1 48780U 21045P   24211.91379315 -.00000171  00000+0 -49194-3 0  9997
2 48780  87.9017  35.9415 0001706  84.4239 275.7085 13.15071009153967
